     3.05           N: GNSS NAV DATA    I: IRNSS            RINEX VERSION / TYPE
JPS2RIN v.2.1.237   JAVAD GNSS          20260605 101053 UTC PGM / RUN BY / DATE
    18                                                      LEAP SECONDS
IRSA   0.0000D+00  0.0000D+00  0.0000D+00  0.0000D+00       IONOSPHERIC CORR
IRSB   0.0000D+00  0.0000D+00  0.0000D+00  0.0000D+00       IONOSPHERIC CORR
IRUT -2.8230715543D-09-5.773159728D-15      0    0          TIME SYSTEM CORR
                                                            END OF HEADER
I09 2026 06 05 08 00 00 7.364042103291D-04-1.045918907039D-11 0.000000000000D+00
     4.000000000000D+00-5.896875000000D+02 2.830117885770D-09 3.035855288656D+00
    -1.914426684380D-05 1.787653542124D-03 2.685934305191D-06 6.493473146439D+03
     4.608000000000D+05 3.725290298462D-09-3.038186981117D+00 7.450580596924D-09
     5.017548905052D-01-1.175000000000D+01-3.135523650163D+00-2.517247710614D-09
     2.200091642648D-10 0.000000000000D+00 2.421000000000D+03 0.000000000000D+00
     2.000000000000D+00 0.000000000000D+00-1.862645000000D-09 4.000000000000D+00
     4.608600000000D+05 0.000000000000D+00
I10 2026 06 05 08 00 00-1.110583543777D-04-9.038103598868D-11 0.000000000000D+00
     4.000000000000D+00-3.614375000000D+02 1.818075730152D-08-2.553586576685D+00
    -1.189485192299D-05 2.818140201271D-04-1.616775989532D-06 6.493441129684D+03
     4.608000000000D+05 1.452863216400D-07-5.184919460707D-02-1.266598701477D-07
     3.832022183677D-02 4.750000000000D+01 7.702665667971D-01-1.711214136080D-08
    -4.700195782020D-10 0.000000000000D+00 2.421000000000D+03 0.000000000000D+00
     2.000000000000D+00 0.000000000000D+00-3.259629000000D-09 4.000000000000D+00
     4.608600000000D+05 0.000000000000D+00
I02 2026 06 05 08 05 36 2.269214019179D-04 4.058620106662D-11 0.000000000000D+00
     1.930000000000D+02-2.256250000000D+02 4.140172454801D-09 7.010441389023D-02
    -7.543712854385D-06 2.319918246940D-03 3.967434167862D-06 6.493382608414D+03
     4.611360000000D+05-1.117587089539D-07-1.357797730754D-01-2.235174179077D-08
     5.054791098167D-01-3.825000000000D+01-3.046548627333D+00-3.580149127582D-09
    -7.021721054295D-10 0.000000000000D+00 2.421000000000D+03 0.000000000000D+00
     2.000000000000D+00 0.000000000000D+00-1.862645000000D-09 1.930000000000D+02
     4.613400000000D+05 0.000000000000D+00
I02 2026 06 05 08 20 48 2.269605174661D-04 4.285993782105D-11 0.000000000000D+00
     1.940000000000D+02-2.211250000000D+02 4.130172038244D-09 1.365853508595D-01
    -7.409602403641D-06 2.320979838260D-03 3.717839717865D-06 6.493385379791D+03
     4.620480000000D+05-1.192092895508D-07-1.357830266052D-01-2.235174179077D-08
     5.054785348899D-01-3.018750000000D+01-3.046521501906D+00-3.584435020392D-09
    -7.018149476953D-10 0.000000000000D+00 2.421000000000D+03 0.000000000000D+00
     2.000000000000D+00 0.000000000000D+00-1.862645000000D-09 1.940000000000D+02
     4.622520000000D+05 0.000000000000D+00
I02 2026 06 05 08 36 00 2.269968390465D-04 4.047251422890D-11 0.000000000000D+00
     1.950000000000D+02-2.151250000000D+02 4.121600252623D-09 2.029700541517D-01
    -7.230788469315D-06 2.321841660887D-03 3.486871719360D-06 6.493387535095D+03
     4.629600000000D+05-1.266598701477D-07-1.357863854651D-01-2.607703208923D-08
     5.054777770984D-01-2.275000000000D+01-3.046397779998D+00-3.591578175076D-09
    -7.014577899611D-10 0.000000000000D+00 2.421000000000D+03 0.000000000000D+00
     2.000000000000D+00 0.000000000000D+00-1.862645000000D-09 1.950000000000D+02
     4.631160000000D+05 0.000000000000D+00
I02 2026 06 05 08 50 24 2.270312979817D-04 4.104094841750D-11 0.000000000000D+00
     1.960000000000D+02-2.085000000000D+02 4.115885728876D-09 2.659041301458D-01
    -7.029622793198D-06 2.322985325009D-03 3.293156623840D-06 6.493390626907D+03
     4.638240000000D+05-1.341104507446D-07-1.357896784937D-01-3.725290298462D-08
     5.054768788667D-01-1.662500000000D+01-3.046324331270D+00-3.601578591633D-09
    -7.000291590243D-10 0.000000000000D+00 2.421000000000D+03 0.000000000000D+00
     2.000000000000D+00 0.000000000000D+00-1.862645000000D-09 1.960000000000D+02
     4.640280000000D+05 0.000000000000D+00
I02 2026 06 05 09 05 36 2.270615659654D-04 4.013145371573D-11 0.000000000000D+00
     1.970000000000D+02-2.006250000000D+02 4.114457097939D-09 3.323373540419D-01
    -6.791204214096D-06 2.323411288671D-03 3.132969141006D-06 6.493391170502D+03
     4.647360000000D+05-1.452863216400D-07-1.357936444646D-01-5.215406417847D-08
     5.054760011158D-01-1.162500000000D+01-3.046249097782D+00-3.614436270064D-09
    -6.982433703533D-10 0.000000000000D+00 2.421000000000D+03 0.000000000000D+00
     2.000000000000D+00 0.000000000000D+00-1.862645000000D-09 1.970000000000D+02
     4.649400000000D+05 0.000000000000D+00
I02 2026 06 05 09 20 48 2.270978875458D-04 3.967670636484D-11 0.000000000000D+00
     1.980000000000D+02-1.925000000000D+02 4.115885728876D-09 3.985859064743D-01
    -6.545335054398D-06 2.324127242900D-03 3.006309270859D-06 6.493393350601D+03
     4.656480000000D+05-1.490116119385D-07-1.357967209814D-01-7.450580596924D-08
     5.054757026805D-01-7.937500000000D+00-3.045989365455D+00-3.630151210369D-09
    -6.950289507456D-10 0.000000000000D+00 2.421000000000D+03 0.000000000000D+00
     2.000000000000D+00 0.000000000000D+00-1.862645000000D-09 1.980000000000D+02
     4.658520000000D+05 0.000000000000D+00
I02 2026 06 05 09 36 00 2.271314151585D-04 3.728928277269D-11 0.000000000000D+00
     1.990000000000D+02-1.846875000000D+02 4.120171621686D-09 4.648289407797D-01
    -6.303191184998D-06 2.325653680600D-03 2.928078174591D-06 6.493398111343D+03
     4.665600000000D+05-1.527369022369D-07-1.358009093158D-01-9.685754776001D-08
     5.054742821871D-01-5.750000000000D+00-3.045724021374D+00-3.647294781610D-09
    -6.903859002010D-10 0.000000000000D+00 2.421000000000D+03 0.000000000000D+00
     2.000000000000D+00 0.000000000000D+00-1.862645000000D-09 1.990000000000D+02
     4.667640000000D+05 0.000000000000D+00
I02 2026 06 05 09 50 24 2.271649427712D-04 3.660716174636D-11 0.000000000000D+00
     2.000000000000D+02-1.778125000000D+02 4.127314776370D-09 5.277551067757D-01
    -6.087124347687D-06 2.325365319848D-03 2.894550561905D-06 6.493397060394D+03
     4.674240000000D+05-1.490116119385D-07-1.358036771568D-01-1.266598701477D-07
     5.054741037111D-01-5.000000000000D+00-3.045642636315D+00-3.665866983789D-09
    -6.846713764539D-10 0.000000000000D+00 2.421000000000D+03 0.000000000000D+00
     2.000000000000D+00 0.000000000000D+00-1.862645000000D-09 2.000000000000D+02
     4.676280000000D+05 0.000000000000D+00
I09 2026 06 05 10 00 00 7.363231852651D-04-1.136868377216D-11 0.000000000000D+00
     5.000000000000D+00-5.423750000000D+02 2.697255208649D-09-2.721024428035D+00
    -1.779571175575D-05 1.779863028787D-03 5.364418029785D-07 6.493492803574D+03
     4.680000000000D+05-3.725290298462D-09-3.038205238335D+00-1.862645149231D-08
     5.017564426613D-01 6.106250000000D+01-3.136797143758D+00-2.540105805603D-09
     2.257236880119D-10 0.000000000000D+00 2.421000000000D+03 0.000000000000D+00
     2.000000000000D+00 0.000000000000D+00-1.862645000000D-09 5.000000000000D+00
     4.680600000000D+05 0.000000000000D+00
I10 2026 06 05 10 00 00-1.117098145187D-04-9.026734915096D-11 0.000000000000D+00
     5.000000000000D+00-3.338125000000D+02 1.805789504095D-08-2.050137869888D+00
    -1.112744212151D-05 2.861069515347D-04-4.004687070847D-06 6.493422889709D+03
     4.680000000000D+05 8.195638656616D-08-5.199364313822D-02 7.078051567078D-08
     3.831727113100D-02 1.243125000000D+02 7.919923675811D-01-1.686498820874D-08
    -3.760870941085D-10 0.000000000000D+00 2.421000000000D+03 0.000000000000D+00
     2.000000000000D+00 0.000000000000D+00-3.259629000000D-09 5.000000000000D+00
     4.680600000000D+05 0.000000000000D+00
I02 2026 06 05 10 05 36 2.272026613355D-04 4.274625098333D-11 0.000000000000D+00
     2.010000000000D+02-1.716250000000D+02 4.137315192927D-09 5.940597782085D-01
    -5.885958671570D-06 2.326772199012D-03 2.890825271606D-06 6.493401233673D+03
     4.683360000000D+05-1.378357410431D-07-1.358076811636D-01-1.564621925354D-07
     5.054730387067D-01-5.250000000000D+00-3.045439761762D+00-3.687296447840D-09
    -6.768139063016D-10 0.000000000000D+00 2.421000000000D+03 0.000000000000D+00
     2.000000000000D+00 0.000000000000D+00-1.862645000000D-09 2.010000000000D+02
     4.685400000000D+05 0.000000000000D+00
